{
  "norad_id": 45026,
  "name": "GSAT-30",
  "history": [
    {
      "epoch": "2026-04-11T19:08:38.552352Z",
      "apogee_km": 35796.0806776773,
      "perigee_km": 35776.16228197143,
      "latitude_deg": -0.007093501213155924,
      "longitude_deg": 83.01969227086859,
      "height_km": 35794.19448945866,
      "semi_major_axis_km": 42164.25847982437,
      "eccentricity": 0.0002362,
      "inclination_deg": 0.0127,
      "raan_deg": 232.6526,
      "arg_perigee_deg": 188.2747,
      "mean_anomaly_deg": 149.2504,
      "mean_motion_rev_day": 1.00273474
    },
    {
      "epoch": "2026-04-12T23:59:38.550336Z",
      "apogee_km": 35796.15322028808,
      "perigee_km": 35776.29886501856,
      "latitude_deg": 0.03444676061032828,
      "longitude_deg": 82.99234197855363,
      "height_km": 35793.00537520385,
      "semi_major_axis_km": 42164.36304265332,
      "eccentricity": 0.00023544,
      "inclination_deg": 0.0162,
      "raan_deg": 223.1194,
      "arg_perigee_deg": 198.5275,
      "mean_anomaly_deg": 222.4724,
      "mean_motion_rev_day": 1.00273101
    },
    {
      "epoch": "2026-04-14T20:34:08.777856Z",
      "apogee_km": 35796.13089402588,
      "perigee_km": 35776.64245118441,
      "latitude_deg": 0.003513356188459481,
      "longitude_deg": 83.01723059258336,
      "height_km": 35795.54665915093,
      "semi_major_axis_km": 42164.52367260515,
      "eccentricity": 0.0002311,
      "inclination_deg": 0.0109,
      "raan_deg": 239.0799,
      "arg_perigee_deg": 183.0119,
      "mean_anomaly_deg": 172.4914,
      "mean_motion_rev_day": 1.00272528
    },
    {
      "epoch": "2026-04-15T15:55:04.469088Z",
      "apogee_km": 35796.14000035759,
      "perigee_km": 35776.769586887596,
      "latitude_deg": -0.03237894088211452,
      "longitude_deg": 83.04007748190863,
      "height_km": 35788.20764730208,
      "semi_major_axis_km": 42164.591793622596,
      "eccentricity": 0.0002297,
      "inclination_deg": 0.0122,
      "raan_deg": 229.4938,
      "arg_perigee_deg": 192.9424,
      "mean_anomaly_deg": 103.1759,
      "mean_motion_rev_day": 1.00272285
    },
    {
      "epoch": "2026-04-16T21:05:24.336960Z",
      "apogee_km": 35795.836909641075,
      "perigee_km": 35777.35189139508,
      "latitude_deg": 0.023901647298368352,
      "longitude_deg": 83.01510683700465,
      "height_km": 35795.32402617105,
      "semi_major_axis_km": 42164.73140051808,
      "eccentricity": 0.0002192,
      "inclination_deg": 0.0182,
      "raan_deg": 200.2003,
      "arg_perigee_deg": 221.5006,
      "mean_anomaly_deg": 182.6957,
      "mean_motion_rev_day": 1.00271787
    },
    {
      "epoch": "2026-04-17T22:54:07.471296Z",
      "apogee_km": 35795.88551777191,
      "perigee_km": 35777.433359554416,
      "latitude_deg": 0.033955785545430814,
      "longitude_deg": 83.0034967225173,
      "height_km": 35794.07492360636,
      "semi_major_axis_km": 42164.796438663165,
      "eccentricity": 0.00021881,
      "inclination_deg": 0.0178,
      "raan_deg": 191.571,
      "arg_perigee_deg": 230.4185,
      "mean_anomaly_deg": 210.647,
      "mean_motion_rev_day": 1.00271555
    },
    {
      "epoch": "2026-04-18T17:43:31.424160Z",
      "apogee_km": 35796.01487142792,
      "perigee_km": 35777.37801504601,
      "latitude_deg": -0.0073474822447470315,
      "longitude_deg": 83.03530449689423,
      "height_km": 35792.58993772452,
      "semi_major_axis_km": 42164.83344323697,
      "eccentricity": 0.000221,
      "inclination_deg": 0.0179,
      "raan_deg": 187.4488,
      "arg_perigee_deg": 235.3,
      "mean_anomaly_deg": 133.0101,
      "mean_motion_rev_day": 1.00271423
    }
  ]
}